{"type": "FeatureCollection", "features": [{"type": "Feature", "properties": {"name": "Vaud", "cartodb_id": 22, "created_at": "2013-12-01T19:38:46+0100", "updated_at": "2013-12-01T19:38:47+0100"}, "geometry": {"type": "MultiPolygon", "coordinates": [[[[6.821, 46.428], [6.683, 46.455], [6.52, 46.457], [6.426, 46.417], [6.335, 46.405], [6.254, 46.361], [6.242, 46.345], [6.208, 46.356], [6.201, 46.357], [6.197, 46.362], [6.188, 46.361], [6.181, 46.366], [6.172, 46.36], [6.175, 46.355], [6.187, 46.351], [6.195, 46.35], [6.194, 46.345], [6.232, 46.332], [6.22, 46.313], [6.199, 46.286], [6.171, 46.296], [6.154, 46.3], [6.141, 46.306], [6.126, 46.318], [6.14, 46.334], [6.139, 46.341], [6.15, 46.344], [6.158, 46.351], [6.159, 46.358], [6.17, 46.369], [6.162, 46.376], [6.159, 46.381], [6.15, 46.379], [6.136, 46.39], [6.113, 46.401], [6.115, 46.398], [6.106, 46.401], [6.098, 46.41], [6.07, 46.416], [6.064, 46.418], [6.076, 46.433], [6.086, 46.442], [6.085, 46.448], [6.075, 46.455], [6.077, 46.459], [6.074, 46.461], [6.074, 46.467], [6.077, 46.468], [6.097, 46.483], [6.113, 46.511], [6.139, 46.532], [6.144, 46.529], [6.154, 46.538], [6.149, 46.54], [6.158, 46.547], [6.111, 46.578], [6.123, 46.585], [6.127, 46.591], [6.149, 46.603], [6.154, 46.605], [6.162, 46.611], [6.166, 46.611], [6.179, 46.617], [6.18, 46.621], [6.197, 46.629], [6.205, 46.637], [6.208, 46.637], [6.22, 46.646], [6.228, 46.65], [6.233, 46.656], [6.257, 46.671], [6.271, 46.68], [6.27, 46.684], [6.283, 46.692], [6.298, 46.695], [6.316, 46.704], [6.342, 46.711], [6.352, 46.716], [6.361, 46.724], [6.365, 46.723], [6.373, 46.725], [6.371, 46.732], [6.383, 46.732], [6.393, 46.74], [6.389, 46.745], [6.396, 46.75], [6.42, 46.754], [6.431, 46.758], [6.44, 46.764], [6.439, 46.768], [6.453, 46.775], [6.452, 46.78], [6.459, 46.79], [6.436, 46.803], [6.432, 46.813], [6.442, 46.817], [6.44, 46.825], [6.443, 46.834], [6.461, 46.852], [6.468, 46.849], [6.482, 46.848], [6.502, 46.853], [6.524, 46.858], [6.531, 46.861], [6.538, 46.868], [6.546, 46.87], [6.551, 46.873], [6.561, 46.876], [6.576, 46.882], [6.589, 46.885], [6.599, 46.885], [6.615, 46.89], [6.628, 46.89], [6.646, 46.907], [6.648, 46.912], [6.669, 46.922], [6.722, 46.937], [6.724, 46.932], [6.718, 46.917], [6.717, 46.907], [6.741, 46.896], [6.739, 46.885], [6.742, 46.884], [6.734, 46.869], [6.742, 46.873], [6.756, 46.872], [6.781, 46.854], [6.743, 46.829], [6.78, 46.802], [6.785, 46.804], [6.788, 46.801], [6.779, 46.795], [6.778, 46.79], [6.784, 46.795], [6.798, 46.784], [6.806, 46.787], [6.815, 46.78], [6.826, 46.774], [6.829, 46.778], [6.834, 46.776], [6.84, 46.782], [6.844, 46.78], [6.85, 46.785], [6.859, 46.789], [6.865, 46.782], [6.88, 46.776], [6.889, 46.779], [6.895, 46.778], [6.908, 46.785], [6.912, 46.781], [6.918, 46.786], [6.917, 46.79], [6.922, 46.798], [6.933, 46.806], [6.921, 46.812], [6.912, 46.804], [6.906, 46.807], [6.912, 46.814], [6.906, 46.826], [6.908, 46.835], [6.921, 46.849], [6.932, 46.855], [6.928, 46.856], [6.914, 46.867], [6.897, 46.862], [6.892, 46.866], [6.91, 46.871], [6.912, 46.868], [6.922, 46.872], [6.912, 46.882], [6.908, 46.88], [6.89, 46.889], [6.866, 46.911], [6.897, 46.927], [6.922, 46.907], [6.931, 46.901], [6.924, 46.896], [6.939, 46.891], [6.942, 46.885], [6.947, 46.884], [6.965, 46.867], [6.97, 46.869], [6.958, 46.883], [6.974, 46.888], [6.99, 46.875], [6.98, 46.867], [6.978, 46.862], [6.982, 46.859], [6.978, 46.851], [6.983, 46.847], [6.99, 46.845], [6.987, 46.836], [6.993, 46.832], [6.986, 46.823], [6.973, 46.825], [6.966, 46.83], [6.958, 46.821], [6.958, 46.812], [6.967, 46.804], [6.957, 46.795], [6.958, 46.789], [6.951, 46.784], [6.947, 46.786], [6.939, 46.783], [6.933, 46.776], [6.936, 46.773], [6.921, 46.761], [6.915, 46.764], [6.909, 46.758], [6.909, 46.756], [6.918, 46.755], [6.922, 46.753], [6.932, 46.755], [6.942, 46.747], [6.931, 46.731], [6.918, 46.72], [6.905, 46.715], [6.893, 46.704], [6.895, 46.702], [6.89, 46.695], [6.882, 46.691], [6.874, 46.684], [6.869, 46.687], [6.863, 46.682], [6.865, 46.678], [6.873, 46.674], [6.865, 46.666], [6.869, 46.662], [6.86, 46.661], [6.855, 46.657], [6.843, 46.66], [6.845, 46.662], [6.834, 46.664], [6.827, 46.66], [6.819, 46.649], [6.808, 46.652], [6.8, 46.649], [6.804, 46.647], [6.8, 46.641], [6.798, 46.634], [6.801, 46.631], [6.804, 46.622], [6.804, 46.61], [6.802, 46.602], [6.799, 46.601], [6.801, 46.593], [6.8, 46.584], [6.795, 46.577], [6.804, 46.576], [6.806, 46.579], [6.814, 46.579], [6.815, 46.587], [6.821, 46.585], [6.824, 46.578], [6.835, 46.577], [6.847, 46.585], [6.86, 46.581], [6.869, 46.577], [6.875, 46.566], [6.88, 46.568], [6.885, 46.563], [6.889, 46.569], [6.899, 46.572], [6.903, 46.562], [6.888, 46.558], [6.869, 46.543], [6.859, 46.532], [6.86, 46.537], [6.853, 46.543], [6.841, 46.539], [6.826, 46.539], [6.826, 46.543], [6.819, 46.538], [6.818, 46.533], [6.811, 46.526], [6.825, 46.513], [6.831, 46.513], [6.833, 46.506], [6.839, 46.501], [6.849, 46.495], [6.863, 46.495], [6.865, 46.5], [6.883, 46.514], [6.897, 46.522], [6.899, 46.516], [6.896, 46.509], [6.902, 46.514], [6.911, 46.513], [6.926, 46.509], [6.934, 46.503], [6.955, 46.503], [6.966, 46.494], [6.973, 46.492], [6.974, 46.482], [6.982, 46.477], [6.979, 46.475], [6.98, 46.462], [6.99, 46.454], [6.993, 46.45], [6.984, 46.44], [6.996, 46.441], [7.013, 46.448], [7.019, 46.448], [7.021, 46.461], [7.04, 46.476], [7.052, 46.483], [7.066, 46.49], [7.073, 46.488], [7.078, 46.49], [7.09, 46.488], [7.106, 46.49], [7.111, 46.496], [7.124, 46.5], [7.137, 46.51], [7.141, 46.521], [7.149, 46.53], [7.16, 46.528], [7.183, 46.539], [7.193, 46.548], [7.202, 46.543], [7.208, 46.534], [7.216, 46.54], [7.226, 46.55], [7.238, 46.555], [7.238, 46.548], [7.247, 46.539], [7.245, 46.534], [7.248, 46.527], [7.25, 46.518], [7.245, 46.502], [7.242, 46.498], [7.233, 46.496], [7.237, 46.489], [7.225, 46.488], [7.225, 46.479], [7.231, 46.468], [7.227, 46.458], [7.233, 46.455], [7.228, 46.453], [7.226, 46.445], [7.213, 46.441], [7.196, 46.442], [7.193, 46.434], [7.201, 46.43], [7.204, 46.423], [7.211, 46.418], [7.208, 46.411], [7.209, 46.404], [7.195, 46.385], [7.194, 46.38], [7.208, 46.379], [7.208, 46.374], [7.217, 46.363], [7.227, 46.366], [7.231, 46.363], [7.219, 46.359], [7.223, 46.35], [7.222, 46.33], [7.189, 46.305], [7.19, 46.296], [7.198, 46.29], [7.196, 46.287], [7.187, 46.284], [7.19, 46.275], [7.184, 46.27], [7.179, 46.27], [7.162, 46.254], [7.156, 46.254], [7.152, 46.245], [7.142, 46.239], [7.127, 46.238], [7.122, 46.23], [7.122, 46.225], [7.111, 46.215], [7.097, 46.209], [7.089, 46.203], [7.083, 46.201], [7.072, 46.202], [7.065, 46.201], [7.044, 46.191], [7.033, 46.189], [7.021, 46.203], [7.012, 46.207], [7.009, 46.222], [7.003, 46.226], [7.003, 46.232], [6.99, 46.245], [6.988, 46.254], [6.976, 46.261], [6.964, 46.272], [6.962, 46.283], [6.952, 46.291], [6.938, 46.299], [6.937, 46.306], [6.933, 46.317], [6.934, 46.323], [6.93, 46.332], [6.918, 46.341], [6.905, 46.34], [6.895, 46.343], [6.889, 46.35], [6.882, 46.355], [6.888, 46.366], [6.886, 46.377], [6.876, 46.382], [6.859, 46.397], [6.821, 46.428]], [[6.168, 46.344], [6.172, 46.342], [6.175, 46.348], [6.182, 46.345], [6.185, 46.347], [6.176, 46.353], [6.168, 46.344]], [[6.749, 46.733], [6.759, 46.727], [6.763, 46.718], [6.771, 46.722], [6.778, 46.727], [6.778, 46.73], [6.784, 46.734], [6.786, 46.749], [6.774, 46.753], [6.77, 46.747], [6.759, 46.739], [6.753, 46.738], [6.749, 46.733]], [[6.788, 46.73], [6.794, 46.727], [6.812, 46.729], [6.818, 46.735], [6.833, 46.736], [6.847, 46.729], [6.865, 46.726], [6.869, 46.73], [6.866, 46.734], [6.883, 46.751], [6.878, 46.757], [6.863, 46.765], [6.853, 46.775], [6.85, 46.776], [6.846, 46.767], [6.83, 46.757], [6.831, 46.755], [6.816, 46.742], [6.817, 46.739], [6.798, 46.735], [6.794, 46.737], [6.788, 46.73]]], [[[6.929, 46.954], [6.998, 46.986], [7.003, 46.988], [7.041, 46.981], [7.052, 46.979], [7.063, 46.972], [7.058, 46.961], [7.061, 46.957], [7.062, 46.943], [7.059, 46.94], [7.089, 46.91], [7.092, 46.905], [7.084, 46.897], [7.062, 46.885], [7.062, 46.881], [7.07, 46.878], [7.071, 46.873], [7.063, 46.868], [7.054, 46.857], [7.05, 46.856], [7.043, 46.848], [7.038, 46.847], [7.031, 46.851], [7.034, 46.858], [7.039, 46.86], [7.031, 46.868], [7.036, 46.874], [7.026, 46.879], [7.022, 46.878], [7.017, 46.882], [7.016, 46.878], [7.009, 46.874], [7.001, 46.875], [6.994, 46.88], [7.01, 46.89], [6.997, 46.899], [6.982, 46.911], [6.983, 46.915], [6.988, 46.919], [6.979, 46.925], [6.975, 46.923], [6.965, 46.926], [6.961, 46.93], [6.929, 46.954]]]]}}, {"type": "Feature", "properties": {"name": "Valais", "cartodb_id": 23, "created_at": "2013-12-01T19:38:46+0100", "updated_at": "2013-12-01T19:38:47+0100"}, "geometry": {"type": "MultiPolygon", "coordinates": [[[[8.386, 46.453], [8.368, 46.453], [8.357, 46.448], [8.354, 46.443], [8.341, 46.435], [8.329, 46.43], [8.326, 46.426], [8.314, 46.425], [8.309, 46.427], [8.3, 46.419], [8.3, 46.416], [8.291, 46.408], [8.307, 46.403], [8.311, 46.404], [8.317, 46.4], [8.315, 46.392], [8.32, 46.388], [8.314, 46.378], [8.301, 46.375], [8.291, 46.37], [8.286, 46.365], [8.274, 46.368], [8.265, 46.365], [8.262, 46.361], [8.267, 46.354], [8.261, 46.35], [8.261, 46.346], [8.254, 46.348], [8.251, 46.342], [8.237, 46.342], [8.225, 46.336], [8.223, 46.331], [8.226, 46.327], [8.216, 46.321], [8.213, 46.311], [8.199, 46.303], [8.195, 46.305], [8.18, 46.299], [8.161, 46.297], [8.148, 46.303], [8.139, 46.303], [8.13, 46.296], [8.122, 46.293], [8.115, 46.282], [8.106, 46.281], [8.101, 46.275], [8.086, 46.268], [8.087, 46.263], [8.081, 46.262], [8.09, 46.255], [8.1, 46.254], [8.102, 46.251], [8.111, 46.251], [8.113, 46.242], [8.116, 46.237], [8.121, 46.237], [8.128, 46.229], [8.14, 46.227], [8.145, 46.213], [8.151, 46.205], [8.154, 46.192], [8.166, 46.184], [8.166, 46.178], [8.159, 46.175], [8.152, 46.167], [8.151, 46.158], [8.156, 46.149], [8.151, 46.142], [8.143, 46.137], [8.136, 46.138], [8.127, 46.137], [8.116, 46.131], [8.115, 46.119], [8.109, 46.113], [8.081, 46.106], [8.065, 46.106], [8.055, 46.102], [8.043, 46.101], [8.037, 46.102], [8.03, 46.091], [8.03, 46.083], [8.023, 46.076], [8.024, 46.064], [8.032, 46.053], [8.035, 46.045], [8.026, 46.041], [8.012, 46.032], [8.018, 46.026], [8.012, 46.02], [8.013, 46.013], [8.002, 46.013], [8.001, 46.009], [7.99, 45.997], [7.98, 46], [7.959, 45.997], [7.943, 45.999], [7.934, 45.997], [7.909, 45.998], [7.904, 45.99], [7.897, 45.984], [7.895, 45.98], [7.881, 45.976], [7.879, 45.973], [7.882, 45.965], [7.876, 45.96], [7.878, 45.95], [7.871, 45.949], [7.87, 45.938], [7.878, 45.928], [7.872, 45.921], [7.865, 45.918], [7.859, 45.922], [7.838, 45.923], [7.832, 45.926], [7.82, 45.928], [7.801, 45.918], [7.795, 45.921], [7.787, 45.929], [7.78, 45.93], [7.77, 45.938], [7.749, 45.942], [7.746, 45.935], [7.737, 45.929], [7.736, 45.925], [7.721, 45.924], [7.708, 45.935], [7.711, 45.95], [7.703, 45.954], [7.682, 45.958], [7.668, 45.975], [7.658, 45.978], [7.64, 45.971], [7.619, 45.973], [7.609, 45.97], [7.587, 45.972], [7.582, 45.976], [7.583, 45.98], [7.58, 45.987], [7.567, 45.989], [7.562, 45.987], [7.548, 45.986], [7.542, 45.977], [7.547, 45.963], [7.539, 45.956], [7.536, 45.958], [7.524, 45.959], [7.517, 45.964], [7.511, 45.96], [7.5, 45.964], [7.497, 45.958], [7.479, 45.954], [7.472, 45.949], [7.476, 45.937], [7.47, 45.935], [7.46, 45.937], [7.458, 45.933], [7.443, 45.931], [7.435, 45.921], [7.422, 45.914], [7.409, 45.909], [7.403, 45.913], [7.392, 45.9], [7.384, 45.897], [7.366, 45.905], [7.362, 45.904], [7.357, 45.912], [7.345, 45.916], [7.332, 45.912], [7.319, 45.913], [7.317, 45.918], [7.303, 45.918], [7.295, 45.923], [7.286, 45.916], [7.277, 45.902], [7.272, 45.901], [7.257, 45.889], [7.252, 45.894], [7.238, 45.891], [7.231, 45.893], [7.217, 45.889], [7.216, 45.885], [7.207, 45.881], [7.198, 45.871], [7.202, 45.864], [7.192, 45.86], [7.179, 45.865], [7.176, 45.864], [7.163, 45.872], [7.165, 45.877], [7.162, 45.879], [7.153, 45.879], [7.135, 45.874], [7.135, 45.87], [7.119, 45.86], [7.102, 45.86], [7.098, 45.864], [7.093, 45.873], [7.095, 45.877], [7.08, 45.887], [7.077, 45.896], [7.065, 45.901], [7.065, 45.909], [7.061, 45.915], [7.054, 45.917], [7.045, 45.923], [7.042, 45.933], [7.036, 45.939], [7.039, 45.949], [7.038, 45.956], [7.023, 45.959], [7.01, 45.97], [7.011, 45.974], [7.022, 45.978], [7.024, 45.981], [7.017, 45.988], [7.013, 45.988], [7.011, 45.999], [7.006, 46.002], [7.002, 46], [6.986, 46.005], [6.982, 46.021], [6.971, 46.027], [6.967, 46.032], [6.964, 46.032], [6.955, 46.043], [6.951, 46.053], [6.944, 46.052], [6.935, 46.057], [6.938, 46.065], [6.935, 46.067], [6.925, 46.066], [6.909, 46.051], [6.896, 46.05], [6.89, 46.043], [6.879, 46.048], [6.873, 46.052], [6.88, 46.071], [6.892, 46.075], [6.889, 46.08], [6.892, 46.086], [6.883, 46.096], [6.894, 46.106], [6.896, 46.11], [6.894, 46.115], [6.9, 46.125], [6.892, 46.127], [6.883, 46.124], [6.874, 46.127], [6.86, 46.127], [6.849, 46.129], [6.843, 46.133], [6.831, 46.134], [6.816, 46.131], [6.808, 46.138], [6.798, 46.137], [6.795, 46.149], [6.791, 46.155], [6.792, 46.164], [6.806, 46.174], [6.807, 46.179], [6.813, 46.183], [6.81, 46.194], [6.804, 46.204], [6.81, 46.215], [6.823, 46.225], [6.821, 46.233], [6.833, 46.237], [6.838, 46.242], [6.84, 46.249], [6.853, 46.253], [6.855, 46.261], [6.86, 46.268], [6.859, 46.275], [6.866, 46.281], [6.859, 46.292], [6.849, 46.291], [6.835, 46.301], [6.83, 46.302], [6.83, 46.308], [6.826, 46.313], [6.808, 46.322], [6.801, 46.321], [6.797, 46.334], [6.785, 46.334], [6.78, 46.346], [6.772, 46.352], [6.772, 46.362], [6.781, 46.368], [6.793, 46.369], [6.8, 46.375], [6.806, 46.38], [6.807, 46.384], [6.802, 46.387], [6.806, 46.395], [6.821, 46.428], [6.859, 46.397], [6.876, 46.382], [6.886, 46.377], [6.888, 46.366], [6.882, 46.355], [6.889, 46.35], [6.895, 46.343], [6.905, 46.34], [6.918, 46.341], [6.93, 46.332], [6.934, 46.323], [6.933, 46.317], [6.937, 46.306], [6.938, 46.299], [6.952, 46.291], [6.962, 46.283], [6.964, 46.272], [6.976, 46.261], [6.988, 46.254], [6.99, 46.245], [7.003, 46.232], [7.003, 46.226], [7.009, 46.222], [7.012, 46.207], [7.021, 46.203], [7.033, 46.189], [7.044, 46.191], [7.065, 46.201], [7.072, 46.202], [7.083, 46.201], [7.089, 46.203], [7.097, 46.209], [7.111, 46.215], [7.122, 46.225], [7.122, 46.23], [7.127, 46.238], [7.142, 46.239], [7.152, 46.245], [7.156, 46.254], [7.162, 46.254], [7.179, 46.27], [7.184, 46.27], [7.19, 46.275], [7.187, 46.284], [7.196, 46.287], [7.198, 46.29], [7.19, 46.296], [7.189, 46.305], [7.222, 46.33], [7.234, 46.328], [7.247, 46.329], [7.255, 46.332], [7.262, 46.338], [7.263, 46.359], [7.291, 46.368], [7.3, 46.368], [7.311, 46.376], [7.313, 46.365], [7.309, 46.36], [7.309, 46.354], [7.316, 46.345], [7.339, 46.348], [7.349, 46.352], [7.356, 46.352], [7.364, 46.358], [7.375, 46.362], [7.4, 46.378], [7.404, 46.377], [7.418, 46.382], [7.428, 46.382], [7.439, 46.387], [7.444, 46.384], [7.456, 46.384], [7.464, 46.379], [7.47, 46.379], [7.474, 46.385], [7.482, 46.385], [7.487, 46.378], [7.486, 46.373], [7.503, 46.371], [7.508, 46.377], [7.528, 46.376], [7.54, 46.379], [7.542, 46.385], [7.556, 46.39], [7.548, 46.395], [7.542, 46.396], [7.53, 46.402], [7.536, 46.411], [7.556, 46.415], [7.563, 46.414], [7.577, 46.418], [7.597, 46.412], [7.601, 46.418], [7.6, 46.424], [7.605, 46.424], [7.611, 46.43], [7.61, 46.438], [7.619, 46.439], [7.627, 46.446], [7.636, 46.442], [7.694, 46.426], [7.698, 46.421], [7.711, 46.415], [7.717, 46.416], [7.723, 46.422], [7.733, 46.423], [7.762, 46.437], [7.767, 46.441], [7.779, 46.445], [7.787, 46.453], [7.799, 46.46], [7.826, 46.468], [7.829, 46.472], [7.842, 46.478], [7.863, 46.479], [7.871, 46.479], [7.897, 46.484], [7.907, 46.488], [7.913, 46.488], [7.916, 46.492], [7.924, 46.493], [7.924, 46.496], [7.934, 46.499], [7.936, 46.505], [7.944, 46.509], [7.958, 46.51], [7.971, 46.518], [7.974, 46.526], [7.963, 46.538], [7.971, 46.546], [7.981, 46.549], [7.987, 46.549], [7.994, 46.558], [8.001, 46.559], [8.016, 46.564], [8.032, 46.564], [8.043, 46.558], [8.055, 46.557], [8.062, 46.552], [8.065, 46.554], [8.078, 46.557], [8.086, 46.553], [8.115, 46.548], [8.127, 46.538], [8.133, 46.538], [8.151, 46.533], [8.175, 46.533], [8.175, 46.525], [8.186, 46.522], [8.192, 46.524], [8.226, 46.528], [8.243, 46.528], [8.259, 46.531], [8.263, 46.535], [8.285, 46.539], [8.288, 46.544], [8.305, 46.547], [8.314, 46.554], [8.318, 46.56], [8.338, 46.562], [8.352, 46.57], [8.353, 46.573], [8.366, 46.584], [8.361, 46.587], [8.365, 46.594], [8.362, 46.599], [8.372, 46.615], [8.37, 46.63], [8.373, 46.634], [8.38, 46.635], [8.393, 46.646], [8.395, 46.647], [8.4, 46.655], [8.411, 46.654], [8.419, 46.654], [8.423, 46.649], [8.421, 46.638], [8.422, 46.631], [8.421, 46.617], [8.417, 46.608], [8.408, 46.601], [8.411, 46.597], [8.407, 46.587], [8.411, 46.578], [8.418, 46.572], [8.429, 46.545], [8.449, 46.537], [8.459, 46.535], [8.465, 46.537], [8.473, 46.531], [8.479, 46.529], [8.461, 46.512], [8.453, 46.509], [8.444, 46.496], [8.436, 46.498], [8.419, 46.494], [8.401, 46.494], [8.393, 46.496], [8.395, 46.487], [8.387, 46.477], [8.393, 46.469], [8.386, 46.467], [8.383, 46.46], [8.386, 46.453]]]]}}, {"type": "Feature", "properties": {"name": "Gen\u00e8ve", "cartodb_id": 25, "created_at": "2013-12-01T19:38:46+0100", "updated_at": "2013-12-01T19:38:47+0100"}, "geometry": {"type": "MultiPolygon", "coordinates": [[[[6.22, 46.313], [6.25, 46.303], [6.249, 46.295], [6.252, 46.289], [6.242, 46.286], [6.238, 46.277], [6.244, 46.274], [6.25, 46.263], [6.262, 46.256], [6.261, 46.253], [6.267, 46.249], [6.28, 46.253], [6.296, 46.266], [6.296, 46.257], [6.303, 46.256], [6.311, 46.258], [6.306, 46.252], [6.31, 46.251], [6.311, 46.245], [6.295, 46.226], [6.278, 46.217], [6.256, 46.211], [6.248, 46.206], [6.236, 46.208], [6.219, 46.2], [6.213, 46.194], [6.206, 46.193], [6.198, 46.184], [6.189, 46.183], [6.187, 46.176], [6.189, 46.167], [6.175, 46.159], [6.169, 46.158], [6.149, 46.151], [6.146, 46.146], [6.13, 46.141], [6.119, 46.144], [6.099, 46.145], [6.093, 46.153], [6.076, 46.15], [6.073, 46.151], [6.052, 46.153], [6.046, 46.141], [6.043, 46.143], [6.035, 46.136], [6.034, 46.14], [6.018, 46.144], [6.003, 46.143], [5.995, 46.146], [5.984, 46.144], [5.982, 46.139], [5.977, 46.134], [5.958, 46.13], [5.958, 46.135], [5.966, 46.138], [5.964, 46.146], [5.981, 46.168], [5.984, 46.175], [5.989, 46.172], [5.991, 46.179], [5.996, 46.183], [5.993, 46.188], [5.983, 46.192], [5.964, 46.198], [5.974, 46.204], [5.97, 46.208], [5.975, 46.216], [5.981, 46.218], [5.993, 46.216], [5.991, 46.223], [6, 46.221], [6.007, 46.225], [6.007, 46.228], [6.013, 46.232], [6.026, 46.234], [6.034, 46.24], [6.046, 46.232], [6.055, 46.242], [6.064, 46.247], [6.068, 46.243], [6.074, 46.242], [6.088, 46.248], [6.102, 46.239], [6.11, 46.241], [6.125, 46.252], [6.123, 46.259], [6.11, 46.272], [6.114, 46.274], [6.104, 46.28], [6.103, 46.286], [6.115, 46.296], [6.12, 46.296], [6.12, 46.314], [6.126, 46.318], [6.126, 46.318], [6.141, 46.306], [6.154, 46.3], [6.171, 46.296], [6.199, 46.286], [6.22, 46.313]]], [[[6.172, 46.36], [6.181, 46.366], [6.189, 46.361], [6.197, 46.362], [6.201, 46.357], [6.208, 46.356], [6.242, 46.345], [6.232, 46.332], [6.194, 46.345], [6.195, 46.35], [6.187, 46.351], [6.175, 46.355], [6.172, 46.36]]], [[[6.168, 46.344], [6.176, 46.353], [6.185, 46.347], [6.182, 46.345], [6.175, 46.348], [6.172, 46.342], [6.168, 46.344]]]]}}]}